{"type": "FeatureCollection", "features": [ {"type": "Feature", "properties": {"norad_id": 32186, "name": "FENGYUN 1C DEB", "group": "fengyun-1c-debris", "lat": 79.34362861730453, "lon": -81.12780669252533, "alt_km": 1042.1341619180967, "timestamp": "2025-12-10T04:57:29.904160+00:00", "meta": {"OBJECT_NAME": "FENGYUN 1C DEB", "OBJECT_ID": "1999-025CUG", "EPOCH": "2025-12-09T09:24:32.827968", "MEAN_MOTION": 13.76498707, "ECCENTRICITY": 0.02746783, "INCLINATION": 99.6097, "RA_OF_ASC_NODE": 33.8435, "ARG_OF_PERICENTER": 209.4403, "MEAN_ANOMALY": 173.7978, "EPHEMERIS_TYPE": 0, "CLASSIFICATION_TYPE": "U", "NORAD_CAT_ID": 32186, "ELEMENT_SET_NO": 999, "REV_AT_EPOCH": 62564, "BSTAR": 0.0015629135, "MEAN_MOTION_DOT": 1.972e-05, "MEAN_MOTION_DDOT": 0}, "tle": {"line1": "1 32186U 99025CUG 25343.39204662  .00001972  00000+0  15629-2 0  9997", "line2": "2 32186  99.6097  33.8435 0274678 209.4403 173.7978 13.76498707625641"}}, "geometry": {"type": "Point", "coordinates": [-81.12780669252533, 79.34362861730453]}}, {"type": "Feature", "properties": {"norad_id": 32187, "name": "FENGYUN 1C DEB", "group": "fengyun-1c-debris", "lat": 39.97283223843124, "lon": -108.65026085750674, "alt_km": 853.20551047552, "timestamp": "2025-12-10T04:57:29.904170+00:00", "meta": {"OBJECT_NAME": "FENGYUN 1C DEB", "OBJECT_ID": "1999-025CUH", "EPOCH": "2025-12-09T10:48:10.080288", "MEAN_MOTION": 13.50492866, "ECCENTRICITY": 0.02943458, "INCLINATION": 99.5055, "RA_OF_ASC_NODE": 62.5525, "ARG_OF_PERICENTER": 154.1368, "MEAN_ANOMALY": 269.9368, "EPHEMERIS_TYPE": 0, "CLASSIFICATION_TYPE": "U", "NORAD_CAT_ID": 32187, "ELEMENT_SET_NO": 999, "REV_AT_EPOCH": 66214, "BSTAR": 0.00085725391, "MEAN_MOTION_DOT": 6.79e-06, "MEAN_MOTION_DDOT": 0}, "tle": {"line1": "1 32187U 99025CUH 25343.45011667  .00000679  00000+0  85725-3 0  9994", "line2": "2 32187  99.5055  62.5525 0294345 154.1368 269.9368 13.50492866662142"}}, "geometry": {"type": "Point", "coordinates": [-108.65026085750674, 39.97283223843124]}}, {"type": "Feature", "properties": {"norad_id": 32191, "name": "FENGYUN 1C DEB", "group": "fengyun-1c-debris", "lat": -66.86304284828086, "lon": 61.34611416802063, "alt_km": 823.6830868533089, "timestamp": "2025-12-10T04:57:29.904180+00:00", "meta": {"OBJECT_NAME": "FENGYUN 1C DEB", "OBJECT_ID": "1999-025CUM", "EPOCH": "2025-12-07T21:40:40.928736", "MEAN_MOTION": 14.25144424, "ECCENTRICITY": 0.00936775, "INCLINATION": 98.7071, "RA_OF_ASC_NODE": 38.0439, "ARG_OF_PERICENTER": 200.4354, "MEAN_ANOMALY": 159.3067, "EPHEMERIS_TYPE": 0, "CLASSIFICATION_TYPE": "U", "NORAD_CAT_ID": 32191, "ELEMENT_SET_NO": 999, "REV_AT_EPOCH": 64432, "BSTAR": 0.0020420613, "MEAN_MOTION_DOT": 4.976e-05, "MEAN_MOTION_DDOT": 0}, "tle": {"line1": "1 32191U 99025CUM 25341.90325149  .00004976  00000+0  20421-2 0  9995", "line2": "2 32191  98.7071  38.0439 0093677 200.4354 159.3067 14.25144424644328"}}, "geometry": {"type": "Point", "coordinates": [61.34611416802063, -66.86304284828086]}}, {"type": "Feature", "properties": {"norad_id": 32192, "name": "FENGYUN 1C DEB", "group": "fengyun-1c-debris", "lat": 80.02396465629056, "lon": 95.25215788180905, "alt_km": 909.3958684781801, "timestamp": "2025-12-10T04:57:29.904191+00:00", "meta": {"OBJECT_NAME": "FENGYUN 1C DEB", "OBJECT_ID": "1999-025CUN", "EPOCH": "2025-12-09T02:26:19.028832", "MEAN_MOTION": 13.82508376, "ECCENTRICITY": 0.01814912, "INCLINATION": 98.6531, "RA_OF_ASC_NODE": 214.2708, "ARG_OF_PERICENTER": 172.2863, "MEAN_ANOMALY": 188.1152, "EPHEMERIS_TYPE": 0, "CLASSIFICATION_TYPE": "U", "NORAD_CAT_ID": 32192, "ELEMENT_SET_NO": 999, "REV_AT_EPOCH": 92662, "BSTAR": 0.00038696582, "MEAN_MOTION_DOT": 4.37e-06, "MEAN_MOTION_DDOT": 0}, "tle": {"line1": "1 32192U 99025CUN 25343.10160913  .00000437  00000+0  38697-3 0  9999", "line2": "2 32192  98.6531 214.2708 0181491 172.2863 188.1152 13.82508376926622"}}, "geometry": {"type": "Point", "coordinates": [95.25215788180905, 80.02396465629056]}}, {"type": "Feature", "properties": {"norad_id": 32195, "name": "FENGYUN 1C DEB", "group": "fengyun-1c-debris", "lat": 55.76578608658382, "lon": 179.80408487555545, "alt_km": 909.0222647667133, "timestamp": "2025-12-10T04:57:29.904201+00:00", "meta": {"OBJECT_NAME": "FENGYUN 1C DEB", "OBJECT_ID": "1999-025CUR", "EPOCH": "2025-12-04T06:51:46.584576", "MEAN_MOTION": 14.08440247, "ECCENTRICITY": 0.0068891, "INCLINATION": 98.773, "RA_OF_ASC_NODE": 340.9294, "ARG_OF_PERICENTER": 324.3515, "MEAN_ANOMALY": 35.3064, "EPHEMERIS_TYPE": 0, "CLASSIFICATION_TYPE": "U", "NORAD_CAT_ID": 32195, "ELEMENT_SET_NO": 999, "REV_AT_EPOCH": 63863, "BSTAR": 0.0010039, "MEAN_MOTION_DOT": 1.715e-05, "MEAN_MOTION_DDOT": 0}, "tle": {"line1": "1 32195U 99025CUR 25338.28595584  .00001715  00000+0  10039-2 0  9990", "line2": "2 32195  98.7730 340.9294 0068891 324.3515  35.3064 14.08440247638633"}}, "geometry": {"type": "Point", "coordinates": [179.80408487555545, 55.76578608658382]}}, {"type": "Feature", "properties": {"norad_id": 32197, "name": "FENGYUN 1C DEB", "group": "fengyun-1c-debris", "lat": 24.358596619744883, "lon": -110.851246257893, "alt_km": 878.9075959119364, "timestamp": "2025-12-10T04:57:29.904211+00:00", "meta": {"OBJECT_NAME": "FENGYUN 1C DEB", "OBJECT_ID": "1999-025CUT", "EPOCH": "2025-12-09T12:55:06.839040", "MEAN_MOTION": 14.32654807, "ECCENTRICITY": 0.0161171, "INCLINATION": 98.9011, "RA_OF_ASC_NODE": 252.5311, "ARG_OF_PERICENTER": 239.3055, "MEAN_ANOMALY": 299.5076, "EPHEMERIS_TYPE": 0, "CLASSIFICATION_TYPE": "U", "NORAD_CAT_ID": 32197, "ELEMENT_SET_NO": 999, "REV_AT_EPOCH": 94377, "BSTAR": 0.00071515, "MEAN_MOTION_DOT": 2.194e-05, "MEAN_MOTION_DDOT": 0}, "tle": {"line1": "1 32197U 99025CUT 25343.53827360  .00002194  00000+0  71515-3 0  9995", "line2": "2 32197  98.9011 252.5311 0161171 239.3055 299.5076 14.32654807943773"}}, "geometry": {"type": "Point", "coordinates": [-110.851246257893, 24.358596619744883]}}, {"type": "Feature", "properties": {"norad_id": 32198, "name": "FENGYUN 1C DEB", "group": "fengyun-1c-debris", "lat": -63.15135389396191, "lon": -65.57327984868235, "alt_km": 831.6011677628703, "timestamp": "2025-12-10T04:57:29.904221+00:00", "meta": {"OBJECT_NAME": "FENGYUN 1C DEB", "OBJECT_ID": "1999-025CUU", "EPOCH": "2025-12-05T16:24:25.007328", "MEAN_MOTION": 14.08762004, "ECCENTRICITY": 0.00945405, "INCLINATION": 98.3435, "RA_OF_ASC_NODE": 127.0916, "ARG_OF_PERICENTER": 312.942, "MEAN_ANOMALY": 46.3848, "EPHEMERIS_TYPE": 0, "CLASSIFICATION_TYPE": "U", "NORAD_CAT_ID": 32198, "ELEMENT_SET_NO": 999, "REV_AT_EPOCH": 56846, "BSTAR": 0.0028001199, "MEAN_MOTION_DOT": 4.993e-05, "MEAN_MOTION_DDOT": 0}, "tle": {"line1": "1 32198U 99025CUU 25339.68362277  .00004993  00000+0  28001-2 0  9998", "line2": "2 32198  98.3435 127.0916 0094540 312.9420  46.3848 14.08762004568460"}}, "geometry": {"type": "Point", "coordinates": [-65.57327984868235, -63.15135389396191]}}, {"type": "Feature", "properties": {"norad_id": 32200, "name": "FENGYUN 1C DEB", "group": "fengyun-1c-debris", "lat": 79.85241317572029, "lon": -86.94550784644842, "alt_km": 858.9408471636089, "timestamp": "2025-12-10T04:57:29.904232+00:00", "meta": {"OBJECT_NAME": "FENGYUN 1C DEB", "OBJECT_ID": "1999-025CUW", "EPOCH": "2025-12-08T10:06:13.411584", "MEAN_MOTION": 14.15674101, "ECCENTRICITY": 0.00394874, "INCLINATION": 98.7916, "RA_OF_ASC_NODE": 31.4523, "ARG_OF_PERICENTER": 302.3884, "MEAN_ANOMALY": 57.3471, "EPHEMERIS_TYPE": 0, "CLASSIFICATION_TYPE": "U", "NORAD_CAT_ID": 32200, "ELEMENT_SET_NO": 999, "REV_AT_EPOCH": 94302, "BSTAR": 0.0016895346, "MEAN_MOTION_DOT": 3.294e-05, "MEAN_MOTION_DDOT": 0}, "tle": {"line1": "1 32200U 99025CUW 25342.42098856  .00003294  00000+0  16895-2 0  9998", "line2": "2 32200  98.7916  31.4523 0039487 302.3884  57.3471 14.15674101943021"}}, "geometry": {"type": "Point", "coordinates": [-86.94550784644842, 79.85241317572029]}}, {"type": "Feature", "properties": {"norad_id": 32203, "name": "FENGYUN 1C DEB", "group": "fengyun-1c-debris", "lat": -13.538650306316683, "lon": 54.0912881616673, "alt_km": 452.6630913165909, "timestamp": "2025-12-10T04:57:29.904252+00:00", "meta": {"OBJECT_NAME": "FENGYUN 1C DEB", "OBJECT_ID": "1999-025CUZ", "EPOCH": "2025-12-09T15:39:45.834048", "MEAN_MOTION": 15.40389772, "ECCENTRICITY": 0.0145717, "INCLINATION": 97.017, "RA_OF_ASC_NODE": 235.259, "ARG_OF_PERICENTER": 102.874, "MEAN_ANOMALY": 258.883, "EPHEMERIS_TYPE": 0, "CLASSIFICATION_TYPE": "U", "NORAD_CAT_ID": 32203, "ELEMENT_SET_NO": 999, "REV_AT_EPOCH": 75050, "BSTAR": 0.00086047, "MEAN_MOTION_DOT": 0.00051035, "MEAN_MOTION_DDOT": 0}, "tle": {"line1": "1 32203U 99025CUZ 25343.65261382  .00051035  00000+0  86047-3 0  9996", "line2": "2 32203  97.0170 235.2590 0145717 102.8740 258.8830 15.40389772750506"}}, "geometry": {"type": "Point", "coordinates": [54.0912881616673, -13.538650306316683]}}, {"type": "Feature", "properties": {"norad_id": 32205, "name": "FENGYUN 1C DEB", "group": "fengyun-1c-debris", "lat": 79.61182725153067, "lon": -68.24251232031179, "alt_km": 844.5664357854203, "timestamp": "2025-12-10T04:57:29.904264+00:00", "meta": {"OBJECT_NAME": "FENGYUN 1C DEB", "OBJECT_ID": "1999-025CVB", "EPOCH": "2025-12-08T06:47:29.461632", "MEAN_MOTION": 14.13907007, "ECCENTRICITY": 0.0010166, "INCLINATION": 98.6784, "RA_OF_ASC_NODE": 346.313, "ARG_OF_PERICENTER": 305.8127, "MEAN_ANOMALY": 72.5568, "EPHEMERIS_TYPE": 0, "CLASSIFICATION_TYPE": "U", "NORAD_CAT_ID": 32205, "ELEMENT_SET_NO": 999, "REV_AT_EPOCH": 94435, "BSTAR": 0.00030058079, "MEAN_MOTION_DOT": 5.27e-06, "MEAN_MOTION_DDOT": 0}, "tle": {"line1": "1 32205U 99025CVB 25342.28297988  .00000527  00000+0  30058-3 0  9998", "line2": "2 32205  98.6784 346.3130 0010166 305.8127  72.5568 14.13907007944356"}}, "geometry": {"type": "Point", "coordinates": [-68.24251232031179, 79.61182725153067]}}]}